{
  "type": "FeatureCollection",
  "features": [
    {
      "type": "Feature",
      "properties": {
        "norad_id": 35152,
        "name": "FENGYUN 1C DEB",
        "group": "fengyun-1c-debris",
        "lat": -71.73531083571777,
        "lon": -145.03728135652833,
        "alt_km": 900.3045364047584,
        "timestamp": "2025-12-26T04:40:06.074212+00:00",
        "meta_object_name": "FENGYUN 1C DEB",
        "meta_object_id": "1999-025DMG",
        "meta_epoch": "2025-12-24T11:08:58.902432",
        "meta_mean_motion": 13.76447569,
        "meta_eccentricity": 0.0194175,
        "meta_inclination": 99.8191,
        "meta_ra_of_asc_node": 181.5284,
        "meta_arg_of_pericenter": 345.1491,
        "meta_mean_anomaly": 14.4005,
        "meta_ephemeris_type": 0,
        "meta_classification_type": "U",
        "meta_norad_cat_id": 35152,
        "meta_element_set_no": 999,
        "meta_rev_at_epoch": 62354,
        "meta_bstar": 0.00059063629,
        "meta_mean_motion_dot": 6.15e-06,
        "meta_mean_motion_ddot": 0,
        "tle_line1": "1 35152U 99025DMG 25358.46457063  .00000615  00000+0  59064-3 0  9997",
        "tle_line2": "2 35152  99.8191 181.5284 0194175 345.1491  14.4005 13.76447569623544"
      },
      "geometry": {
        "type": "Point",
        "coordinates": [
          -145.03728135652833,
          -71.73531083571777
        ]
      }
    },
    {
      "type": "Feature",
      "properties": {
        "norad_id": 35153,
        "name": "FENGYUN 1C DEB",
        "group": "fengyun-1c-debris",
        "lat": 4.8775773799213304,
        "lon": 74.07568272288587,
        "alt_km": 732.8732570851498,
        "timestamp": "2025-12-26T04:40:06.074222+00:00",
        "meta_object_name": "FENGYUN 1C DEB",
        "meta_object_id": "1999-025DMH",
        "meta_epoch": "2025-12-25T09:57:58.794912",
        "meta_mean_motion": 14.73808932,
        "meta_eccentricity": 0.017077,
        "meta_inclination": 98.9016,
        "meta_ra_of_asc_node": 252.4543,
        "meta_arg_of_pericenter": 43.8096,
        "meta_mean_anomaly": 317.6511,
        "meta_ephemeris_type": 0,
        "meta_classification_type": "U",
        "meta_norad_cat_id": 35153,
        "meta_element_set_no": 999,
        "meta_rev_at_epoch": 97404,
        "meta_bstar": 0.00043864,
        "meta_mean_motion_dot": 3.556e-05,
        "meta_mean_motion_ddot": 0,
        "tle_line1": "1 35153U 99025DMH 25359.41526383  .00003556  00000+0  43864-3 0  9994",
        "tle_line2": "2 35153  98.9016 252.4543 0170770  43.8096 317.6511 14.73808932974042"
      },
      "geometry": {
        "type": "Point",
        "coordinates": [
          74.07568272288587,
          4.8775773799213304
        ]
      }
    },
    {
      "type": "Feature",
      "properties": {
        "norad_id": 35154,
        "name": "FENGYUN 1C DEB",
        "group": "fengyun-1c-debris",
        "lat": -15.546843200615239,
        "lon": 125.16871791857075,
        "alt_km": 712.4485537916107,
        "timestamp": "2025-12-26T04:40:06.074232+00:00",
        "meta_object_name": "FENGYUN 1C DEB",
        "meta_object_id": "1999-025DMJ",
        "meta_epoch": "2025-12-24T01:58:11.654976",
        "meta_mean_motion": 14.18912921,
        "meta_eccentricity": 0.0178909,
        "meta_inclination": 99.4221,
        "meta_ra_of_asc_node": 120.2762,
        "meta_arg_of_pericenter": 10.5644,
        "meta_mean_anomaly": 349.921,
        "meta_ephemeris_type": 0,
        "meta_classification_type": "U",
        "meta_norad_cat_id": 35154,
        "meta_element_set_no": 999,
        "meta_rev_at_epoch": 64738,
        "meta_bstar": 0.00026986372,
        "meta_mean_motion_dot": 6.08e-06,
        "meta_mean_motion_ddot": 0,
        "tle_line1": "1 35154U 99025DMJ 25358.08207934  .00000608  00000+0  26986-3 0  9996",
        "tle_line2": "2 35154  99.4221 120.2762 0178909  10.5644 349.9210 14.18912921647385"
      },
      "geometry": {
        "type": "Point",
        "coordinates": [
          125.16871791857075,
          -15.546843200615239
        ]
      }
    },
    {
      "type": "Feature",
      "properties": {
        "norad_id": 35155,
        "name": "FENGYUN 1C DEB",
        "group": "fengyun-1c-debris",
        "lat": 55.087707382388786,
        "lon": -156.30892970128056,
        "alt_km": 821.9152065658145,
        "timestamp": "2025-12-26T04:40:06.074242+00:00",
        "meta_object_name": "FENGYUN 1C DEB",
        "meta_object_id": "1999-025DMK",
        "meta_epoch": "2025-12-24T18:15:01.567584",
        "meta_mean_motion": 14.19312867,
        "meta_eccentricity": 0.00258689,
        "meta_inclination": 98.5001,
        "meta_ra_of_asc_node": 9.9422,
        "meta_arg_of_pericenter": 39.4189,
        "meta_mean_anomaly": 320.8864,
        "meta_ephemeris_type": 0,
        "meta_classification_type": "U",
        "meta_norad_cat_id": 35155,
        "meta_element_set_no": 999,
        "meta_rev_at_epoch": 72884,
        "meta_bstar": 0.00057480531,
        "meta_mean_motion_dot": 1.169e-05,
        "meta_mean_motion_ddot": 0,
        "tle_line1": "1 35155U 99025DMK 25358.76043481  .00001169  00000+0  57481-3 0  9994",
        "tle_line2": "2 35155  98.5001   9.9422 0025868  39.4189 320.8864 14.19312867728845"
      },
      "geometry": {
        "type": "Point",
        "coordinates": [
          -156.30892970128056,
          55.087707382388786
        ]
      }
    },
    {
      "type": "Feature",
      "properties": {
        "norad_id": 35156,
        "name": "FENGYUN 1C DEB",
        "group": "fengyun-1c-debris",
        "lat": 34.24797660701846,
        "lon": 172.28461876007594,
        "alt_km": 832.6434815131697,
        "timestamp": "2025-12-26T04:40:06.074253+00:00",
        "meta_object_name": "FENGYUN 1C DEB",
        "meta_object_id": "1999-025DML",
        "meta_epoch": "2025-12-22T09:45:46.789920",
        "meta_mean_motion": 14.10637167,
        "meta_eccentricity": 0.00374137,
        "meta_inclination": 98.7528,
        "meta_ra_of_asc_node": 342.5755,
        "meta_arg_of_pericenter": 121.1131,
        "meta_mean_anomaly": 239.3719,
        "meta_ephemeris_type": 0,
        "meta_classification_type": "U",
        "meta_norad_cat_id": 35156,
        "meta_element_set_no": 999,
        "meta_rev_at_epoch": 64180,
        "meta_bstar": 0.00031397822,
        "meta_mean_motion_dot": 5.21e-06,
        "meta_mean_motion_ddot": 0,
        "tle_line1": "1 35156U 99025DML 25356.40679155  .00000521  00000+0  31398-3 0  9997",
        "tle_line2": "2 35156  98.7528 342.5755 0037413 121.1131 239.3719 14.10637167641809"
      },
      "geometry": {
        "type": "Point",
        "coordinates": [
          172.28461876007594,
          34.24797660701846
        ]
      }
    },
    {
      "type": "Feature",
      "properties": {
        "norad_id": 35159,
        "name": "FENGYUN 1C DEB",
        "group": "fengyun-1c-debris",
        "lat": 61.0155191934014,
        "lon": 59.63404067187907,
        "alt_km": 734.8629890089642,
        "timestamp": "2025-12-26T04:40:06.074263+00:00",
        "meta_object_name": "FENGYUN 1C DEB",
        "meta_object_id": "1999-025DMP",
        "meta_epoch": "2025-12-23T17:16:37.371936",
        "meta_mean_motion": 14.45286937,
        "meta_eccentricity": 0.00094944,
        "meta_inclination": 98.8378,
        "meta_ra_of_asc_node": 73.3712,
        "meta_arg_of_pericenter": 158.5401,
        "meta_mean_anomaly": 355.5286,
        "meta_ephemeris_type": 0,
        "meta_classification_type": "U",
        "meta_norad_cat_id": 35159,
        "meta_element_set_no": 999,
        "meta_rev_at_epoch": 61639,
        "meta_bstar": 0.0019831289,
        "meta_mean_motion_dot": 6.923e-05,
        "meta_mean_motion_ddot": 0,
        "tle_line1": "1 35159U 99025DMP 25357.71987699  .00006923  00000+0  19831-2 0  9999",
        "tle_line2": "2 35159  98.8378  73.3712 0009494 158.5401 355.5286 14.45286937616399"
      },
      "geometry": {
        "type": "Point",
        "coordinates": [
          59.63404067187907,
          61.0155191934014
        ]
      }
    },
    {
      "type": "Feature",
      "properties": {
        "norad_id": 35160,
        "name": "FENGYUN 1C DEB",
        "group": "fengyun-1c-debris",
        "lat": 53.82736264740469,
        "lon": 102.71979317048064,
        "alt_km": 869.4964671543294,
        "timestamp": "2025-12-26T04:40:06.074273+00:00",
        "meta_object_name": "FENGYUN 1C DEB",
        "meta_object_id": "1999-025DMQ",
        "meta_epoch": "2025-12-24T13:56:33.825120",
        "meta_mean_motion": 14.36001877,
        "meta_eccentricity": 0.01764255,
        "meta_inclination": 99.1558,
        "meta_ra_of_asc_node": 113.7491,
        "meta_arg_of_pericenter": 204.8514,
        "meta_mean_anomaly": 154.4098,
        "meta_ephemeris_type": 0,
        "meta_classification_type": "U",
        "meta_norad_cat_id": 35160,
        "meta_element_set_no": 999,
        "meta_rev_at_epoch": 65101,
        "meta_bstar": 0.00054836097,
        "meta_mean_motion_dot": 1.847e-05,
        "meta_mean_motion_ddot": 0,
        "tle_line1": "1 35160U 99025DMQ 25358.58094705  .00001847  00000+0  54836-3 0  9999",
        "tle_line2": "2 35160  99.1558 113.7491 0176425 204.8514 154.4098 14.36001877651010"
      },
      "geometry": {
        "type": "Point",
        "coordinates": [
          102.71979317048064,
          53.82736264740469
        ]
      }
    }
  ]
}